format  = 'OEF2.0'       ! file format
rectype = 'ML'           ! record type (1L/ML)
refsys  = ECLM J2000     ! default reference system
END_OF_HEADER
00433
! Cartesian position and velocity vectors
CAR  -1.22306882154342E+00 -7.54870563346849E-03 -1.94063547681972E-01 -2.34806714930184E-03 -1.62765124335857E-02 -2.12575500123096E-03
MJD     58583.542708549 TDT
MAG   9.689  0.150
! Non-grav parameters: model used, actual number in use, dimension
LSP   0  0    6
! RMS    8.36203E-03   9.98167E-03   5.74675E-03   2.21292E-04   2.05312E-05   5.22869E-05
! EIG   1.58819E-07   1.58984E-07   6.25372E-07   6.39490E-07   3.54922E-06   1.42350E-02
! WEA  -0.58743   0.70121  -0.40371  -0.01554  -0.00143  -0.00367
COV   6.992354284038229E-05 -8.346699587927927E-05  4.805453507246170E-05
COV   1.850368676445549E-06  1.704809559112331E-07  4.370665207677251E-07
COV   9.963367521582124E-05 -5.736219264400167E-05 -2.208763315495613E-06
COV  -2.035040248358585E-07 -5.217201420687177E-07  3.302519151614665E-05
COV   1.271653974578207E-06  1.171629615930171E-07  3.003707952505207E-07
COV   4.897002917632551E-08  4.506449591974129E-09  1.156883153741557E-08
COV   4.215309947450707E-10  1.062235507268742E-09  2.733918016723604E-09
NOR   1.609049275209759E+12  1.007124859537822E+12 -5.794310341656390E+11
NOR  -2.939229911494106E+11  1.875196130795790E+11 -2.117574681408425E+11
NOR   1.246302109571852E+12  6.906800632087275E+11  1.853380717843057E+11
NOR   5.799764268283500E+11 -6.583262665264197E+10  2.049155909941862E+12
NOR  -2.107187838885594E+11 -6.533376115978072E+10  2.166072710476590E+11
NOR   2.567535630768965E+13  1.626999696274707E+13 -9.460476560510590E+12
NOR   2.048663251346044E+13  1.107008699298362E+13  3.322411784822529E+13
!MOID  0.14836    0
!NODES  0.76711  0.14836
00433
! Keplerian elements: a, e, i, long. node, arg. peric., mean anomaly
KEP   1.4581241927527926E+00 0.222744300108537  10.8287267022451 304.3063806900549 178.8198147253551  38.0280193664430
MJD     58583.542708549 TDT
MAG   9.689  0.150
! Non-grav parameters: model used, actual number in use, dimension
LSP   0  0    6
! RMS    3.90610E-02   1.48815E-02   2.14021E-01   6.90287E-01   2.06479E+00   2.54008E+00
! EIG   2.69628E-07   5.95938E-07   6.47049E-06   4.70040E-05   1.12898E-03   7.18967E-02
! WEA   0.54322   0.20693   0.05191  -0.16757   0.50110  -0.61662
COV   1.525760824993109E-03  5.812698340688206E-04  8.357570564816227E-03
COV  -2.695871883096167E-02  8.058882086196088E-02 -9.920626951656582E-02
COV   2.214590333339513E-04  3.184543692310891E-03 -1.026909388975512E-02
COV   3.069281804393250E-02 -3.779030573714723E-02  4.580497013294367E-02
COV  -1.476072875330114E-01  4.410240660154400E-01 -5.432200872034311E-01
COV   4.764959126584905E-01 -1.424953740007307E+00  1.753364649354181E+00
COV   4.263372577084366E+00 -5.243176381190025E+00  6.452012153642937E+00
NOR   1.048614513128628E+12  1.107563777251376E+12 -9.107067257876678E+09
NOR   2.000156273968396E+10  1.922306111091338E+10  3.202985796280285E+10
NOR   4.474631680448938E+12  3.441517407027623E+10  4.558429408935274E+10
NOR   5.075914006459071E+10  7.499725770643272E+10  6.845316598708315E+08
NOR   1.533873743376040E+08  2.419747522896198E+08  2.741323781327349E+08
NOR   5.627439791711824E+08  5.922687095978777E+08  9.158262114629425E+08
NOR   6.335797324176267E+08  9.671718327901727E+08  1.491925497355895E+09
    